{"type": "FeatureCollection", "features": [ {"type": "Feature", "properties": {"norad_id": 37562, "name": "IRIDIUM 33 DEB", "group": "iridium-33-debris", "lat": -53.40169712799182, "lon": 33.08461991531894, "alt_km": 720.7644187685755, "timestamp": "2025-12-25T14:48:25.158460+00:00", "meta": {"OBJECT_NAME": "IRIDIUM 33 DEB", "OBJECT_ID": "1997-051XX", "EPOCH": "2025-12-24T09:26:56.500800", "MEAN_MOTION": 14.56572659, "ECCENTRICITY": 0.0026339, "INCLINATION": 86.3729, "RA_OF_ASC_NODE": 38.5181, "ARG_OF_PERICENTER": 71.2169, "MEAN_ANOMALY": 305.3753, "EPHEMERIS_TYPE": 0, "CLASSIFICATION_TYPE": "U", "NORAD_CAT_ID": 37562, "ELEMENT_SET_NO": 999, "REV_AT_EPOCH": 86498, "BSTAR": 0.0010617703, "MEAN_MOTION_DOT": 4.771e-05, "MEAN_MOTION_DDOT": 0}, "tle": {"line1": "1 37562U 97051XX  25358.39370950  .00004771  00000+0  10618-2 0  9990", "line2": "2 37562  86.3729  38.5181 0026339  71.2169 305.3753 14.56572659864986"}}, "geometry": {"type": "Point", "coordinates": [33.08461991531894, -53.40169712799182]}}, {"type": "Feature", "properties": {"norad_id": 37565, "name": "IRIDIUM 33 DEB", "group": "iridium-33-debris", "lat": -36.69272835297276, "lon": -173.30488135010086, "alt_km": 737.3498646222079, "timestamp": "2025-12-25T14:48:25.158469+00:00", "meta": {"OBJECT_NAME": "IRIDIUM 33 DEB", "OBJECT_ID": "1997-051YA", "EPOCH": "2025-12-22T08:03:11.421504", "MEAN_MOTION": 14.51554431, "ECCENTRICITY": 0.00147764, "INCLINATION": 86.3487, "RA_OF_ASC_NODE": 5.397, "ARG_OF_PERICENTER": 56.1153, "MEAN_ANOMALY": 304.1456, "EPHEMERIS_TYPE": 0, "CLASSIFICATION_TYPE": "U", "NORAD_CAT_ID": 37565, "ELEMENT_SET_NO": 999, "REV_AT_EPOCH": 65976, "BSTAR": 0.00051713633, "MEAN_MOTION_DOT": 2.092e-05, "MEAN_MOTION_DDOT": 0}, "tle": {"line1": "1 37565U 97051YA  25356.33554886  .00002092  00000+0  51714-3 0  9994", "line2": "2 37565  86.3487   5.3970 0014776  56.1153 304.1456 14.51554431659763"}}, "geometry": {"type": "Point", "coordinates": [-173.30488135010086, -36.69272835297276]}}, {"type": "Feature", "properties": {"norad_id": 38017, "name": "IRIDIUM 33 DEB", "group": "iridium-33-debris", "lat": -18.166748827708346, "lon": -18.16737718752488, "alt_km": 780.6540955179162, "timestamp": "2025-12-25T14:48:25.158478+00:00", "meta": {"OBJECT_NAME": "IRIDIUM 33 DEB", "OBJECT_ID": "1997-051YD", "EPOCH": "2025-12-24T09:44:09.506112", "MEAN_MOTION": 14.49387584, "ECCENTRICITY": 0.00913995, "INCLINATION": 86.342, "RA_OF_ASC_NODE": 161.1566, "ARG_OF_PERICENTER": 64.0527, "MEAN_ANOMALY": 297.0059, "EPHEMERIS_TYPE": 0, "CLASSIFICATION_TYPE": "U", "NORAD_CAT_ID": 38017, "ELEMENT_SET_NO": 999, "REV_AT_EPOCH": 61571, "BSTAR": 0.0046903358, "MEAN_MOTION_DOT": 0.00018964, "MEAN_MOTION_DDOT": 0}, "tle": {"line1": "1 38017U 97051YD  25358.40566558  .00018964  00000+0  46903-2 0  9994", "line2": "2 38017  86.3420 161.1566 0091399  64.0527 297.0059 14.49387584615710"}}, "geometry": {"type": "Point", "coordinates": [-18.16737718752488, -18.166748827708346]}}, {"type": "Feature", "properties": {"norad_id": 38022, "name": "IRIDIUM 33 DEB", "group": "iridium-33-debris", "lat": -28.166051486270607, "lon": 8.800785085241458, "alt_km": 734.0635707278961, "timestamp": "2025-12-25T14:48:25.158487+00:00", "meta": {"OBJECT_NAME": "IRIDIUM 33 DEB", "OBJECT_ID": "1997-051YJ", "EPOCH": "2025-12-23T07:57:08.773056", "MEAN_MOTION": 14.41313849, "ECCENTRICITY": 0.00453843, "INCLINATION": 86.2683, "RA_OF_ASC_NODE": 11.8042, "ARG_OF_PERICENTER": 16.2864, "MEAN_ANOMALY": 343.9781, "EPHEMERIS_TYPE": 0, "CLASSIFICATION_TYPE": "U", "NORAD_CAT_ID": 38022, "ELEMENT_SET_NO": 999, "REV_AT_EPOCH": 69346, "BSTAR": 0.0010847612, "MEAN_MOTION_DOT": 3.57e-05, "MEAN_MOTION_DDOT": 0}, "tle": {"line1": "1 38022U 97051YJ  25357.33135154  .00003570  00000+0  10848-2 0  9991", "line2": "2 38022  86.2683  11.8042 0045384  16.2864 343.9781 14.41313849693468"}}, "geometry": {"type": "Point", "coordinates": [8.800785085241458, -28.166051486270607]}}, {"type": "Feature", "properties": {"norad_id": 38028, "name": "IRIDIUM 33 DEB", "group": "iridium-33-debris", "lat": -17.900835455690633, "lon": -6.517768663099034, "alt_km": 745.891478242017, "timestamp": "2025-12-25T14:48:25.158496+00:00", "meta": {"OBJECT_NAME": "IRIDIUM 33 DEB", "OBJECT_ID": "1997-051YQ", "EPOCH": "2025-12-19T17:44:22.316352", "MEAN_MOTION": 14.46188799, "ECCENTRICITY": 0.0030512, "INCLINATION": 86.3252, "RA_OF_ASC_NODE": 357.2262, "ARG_OF_PERICENTER": 99.065, "MEAN_ANOMALY": 261.4007, "EPHEMERIS_TYPE": 0, "CLASSIFICATION_TYPE": "U", "NORAD_CAT_ID": 38028, "ELEMENT_SET_NO": 999, "REV_AT_EPOCH": 65596, "BSTAR": 0.00016660929, "MEAN_MOTION_DOT": 6.2e-06, "MEAN_MOTION_DDOT": 0}, "tle": {"line1": "1 38028U 97051YQ  25353.73914718  .00000620  00000+0  16661-3 0  9991", "line2": "2 38028  86.3252 357.2262 0030512  99.0650 261.4007 14.46188799655964"}}, "geometry": {"type": "Point", "coordinates": [-6.517768663099034, -17.900835455690633]}}, {"type": "Feature", "properties": {"norad_id": 38228, "name": "IRIDIUM 33 DEB", "group": "iridium-33-debris", "lat": 58.916990124688525, "lon": -143.1782897429758, "alt_km": 753.5004561746273, "timestamp": "2025-12-25T14:48:25.158505+00:00", "meta": {"OBJECT_NAME": "IRIDIUM 33 DEB", "OBJECT_ID": "1997-051ZC", "EPOCH": "2025-12-20T22:20:09.818016", "MEAN_MOTION": 14.2727844, "ECCENTRICITY": 0.0065198, "INCLINATION": 86.2935, "RA_OF_ASC_NODE": 44.9869, "ARG_OF_PERICENTER": 163.0896, "MEAN_ANOMALY": 14.0405, "EPHEMERIS_TYPE": 0, "CLASSIFICATION_TYPE": "U", "NORAD_CAT_ID": 38228, "ELEMENT_SET_NO": 999, "REV_AT_EPOCH": 84898, "BSTAR": 0.00020665, "MEAN_MOTION_DOT": 5.36e-06, "MEAN_MOTION_DDOT": 0}, "tle": {"line1": "1 38228U 97051ZC  25354.93066919  .00000536  00000+0  20665-3 0  9992", "line2": "2 38228  86.2935  44.9869 0065198 163.0896  14.0405 14.27278440848980"}}, "geometry": {"type": "Point", "coordinates": [-143.1782897429758, 58.916990124688525]}}, {"type": "Feature", "properties": {"norad_id": 38241, "name": "IRIDIUM 33 DEB", "group": "iridium-33-debris", "lat": -61.56879312893668, "lon": 171.73671989930324, "alt_km": 720.1219487310536, "timestamp": "2025-12-25T14:48:25.158514+00:00", "meta": {"OBJECT_NAME": "IRIDIUM 33 DEB", "OBJECT_ID": "1997-051ZR", "EPOCH": "2025-12-25T07:05:48.823008", "MEAN_MOTION": 14.54944281, "ECCENTRICITY": 0.00049063, "INCLINATION": 86.3239, "RA_OF_ASC_NODE": 345.0585, "ARG_OF_PERICENTER": 45.5545, "MEAN_ANOMALY": 314.6063, "EPHEMERIS_TYPE": 0, "CLASSIFICATION_TYPE": "U", "NORAD_CAT_ID": 38241, "ELEMENT_SET_NO": 999, "REV_AT_EPOCH": 60383, "BSTAR": 0.00082967513, "MEAN_MOTION_DOT": 3.588e-05, "MEAN_MOTION_DDOT": 0}, "tle": {"line1": "1 38241U 97051ZR  25359.29570397  .00003588  00000+0  82968-3 0  9995", "line2": "2 38241  86.3239 345.0585 0004906  45.5545 314.6063 14.54944281603833"}}, "geometry": {"type": "Point", "coordinates": [171.73671989930324, -61.56879312893668]}}, {"type": "Feature", "properties": {"norad_id": 38474, "name": "IRIDIUM 33 DEB", "group": "iridium-33-debris", "lat": -1.1909532276509487, "lon": -175.47147372768347, "alt_km": 740.1819784310292, "timestamp": "2025-12-25T14:48:25.158523+00:00", "meta": {"OBJECT_NAME": "IRIDIUM 33 DEB", "OBJECT_ID": "1997-051AAB", "EPOCH": "2025-12-21T07:20:31.212384", "MEAN_MOTION": 14.50718538, "ECCENTRICITY": 0.00276153, "INCLINATION": 86.3426, "RA_OF_ASC_NODE": 6.3307, "ARG_OF_PERICENTER": 61.1056, "MEAN_ANOMALY": 299.2914, "EPHEMERIS_TYPE": 0, "CLASSIFICATION_TYPE": "U", "NORAD_CAT_ID": 38474, "ELEMENT_SET_NO": 999, "REV_AT_EPOCH": 65442, "BSTAR": 0.00039085525, "MEAN_MOTION_DOT": 1.564e-05, "MEAN_MOTION_DDOT": 0}, "tle": {"line1": "1 38474U 97051AAB 25355.30591681  .00001564  00000+0  39086-3 0  9995", "line2": "2 38474  86.3426   6.3307 0027615  61.1056 299.2914 14.50718538654425"}}, "geometry": {"type": "Point", "coordinates": [-175.47147372768347, -1.1909532276509487]}}, {"type": "Feature", "properties": {"norad_id": 39777, "name": "IRIDIUM 33 DEB", "group": "iridium-33-debris", "lat": 41.02278808163276, "lon": -14.727528680598654, "alt_km": 657.8685159136476, "timestamp": "2025-12-25T14:48:25.158532+00:00", "meta": {"OBJECT_NAME": "IRIDIUM 33 DEB", "OBJECT_ID": "1997-051AAJ", "EPOCH": "2025-12-24T21:41:15.335808", "MEAN_MOTION": 14.56705579, "ECCENTRICITY": 0.00605319, "INCLINATION": 85.9631, "RA_OF_ASC_NODE": 169.1412, "ARG_OF_PERICENTER": 145.8576, "MEAN_ANOMALY": 214.6549, "EPHEMERIS_TYPE": 0, "CLASSIFICATION_TYPE": "U", "NORAD_CAT_ID": 39777, "ELEMENT_SET_NO": 999, "REV_AT_EPOCH": 60362, "BSTAR": 0.0030691062, "MEAN_MOTION_DOT": 0.00014091, "MEAN_MOTION_DDOT": 0}, "tle": {"line1": "1 39777U 97051AAJ 25358.90364972  .00014091  00000+0  30691-2 0  9993", "line2": "2 39777  85.9631 169.1412 0060531 145.8576 214.6549 14.56705579603629"}}, "geometry": {"type": "Point", "coordinates": [-14.727528680598654, 41.02278808163276]}}, {"type": "Feature", "properties": {"norad_id": 39778, "name": "IRIDIUM 33 DEB", "group": "iridium-33-debris", "lat": -48.53424753498335, "lon": -138.25334721022713, "alt_km": 721.615031761542, "timestamp": "2025-12-25T14:48:25.158543+00:00", "meta": {"OBJECT_NAME": "IRIDIUM 33 DEB", "OBJECT_ID": "1997-051AAK", "EPOCH": "2025-12-24T09:41:12.657408", "MEAN_MOTION": 14.54337863, "ECCENTRICITY": 0.00066717, "INCLINATION": 86.3766, "RA_OF_ASC_NODE": 38.1613, "ARG_OF_PERICENTER": 4.9575, "MEAN_ANOMALY": 355.1697, "EPHEMERIS_TYPE": 0, "CLASSIFICATION_TYPE": "U", "NORAD_CAT_ID": 39778, "ELEMENT_SET_NO": 999, "REV_AT_EPOCH": 60862, "BSTAR": 0.00084263219, "MEAN_MOTION_DOT": 3.597e-05, "MEAN_MOTION_DDOT": 0}, "tle": {"line1": "1 39778U 97051AAK 25358.40361872  .00003597  00000+0  84263-3 0  9999", "line2": "2 39778  86.3766  38.1613 0006671   4.9575 355.1697 14.54337863608626"}}, "geometry": {"type": "Point", "coordinates": [-138.25334721022713, -48.53424753498335]}}]}